[{"OBJECT_NAME":"TEIKYOSAT-4 (OORURI)","OBJECT_ID":"2021-102B","EPOCH":"2026-03-09T16:12:29.535840","MEAN_MOTION":15.09119208,"ECCENTRICITY":0.00103447,"INCLINATION":97.3797,"RA_OF_ASC_NODE":101.9931,"ARG_OF_PERICENTER":276.5421,"MEAN_ANOMALY":83.463,"EPHEMERIS_TYPE":0,"CLASSIFICATION_TYPE":"U","NORAD_CAT_ID":49396,"ELEMENT_SET_NO":999,"REV_AT_EPOCH":23771,"BSTAR":0.00015739844,"MEAN_MOTION_DOT":2.438e-5,"MEAN_MOTION_DDOT":0},{"OBJECT_NAME":"STARLINK-4764","OBJECT_ID":"2022-114K","EPOCH":"2026-03-09T21:49:20.035488","MEAN_MOTION":15.08862308,"ECCENTRICITY":0.00014152,"INCLINATION":53.2176,"RA_OF_ASC_NODE":303.2006,"ARG_OF_PERICENTER":69.746,"MEAN_ANOMALY":290.3684,"EPHEMERIS_TYPE":0,"CLASSIFICATION_TYPE":"U","NORAD_CAT_ID":53827,"ELEMENT_SET_NO":999,"REV_AT_EPOCH":19286,"BSTAR":0.00032708649,"MEAN_MOTION_DOT":4.925e-5,"MEAN_MOTION_DDOT":0}]
